{
  "norad_id": 48299,
  "name": "STARLINK-2557",
  "history": [
    {
      "epoch": "2026-05-04T10:54:41.443776Z",
      "apogee_km": 471.58757921564666,
      "perigee_km": 469.8568724892739,
      "latitude_deg": -4.966257304198882e-05,
      "longitude_deg": 150.05843648812493,
      "height_km": 471.497103531975,
      "semi_major_axis_km": 6848.85922585246,
      "eccentricity": 0.00012635,
      "inclination_deg": 53.1577,
      "raan_deg": 176.0749,
      "arg_perigee_deg": 81.79,
      "mean_anomaly_deg": 278.3244,
      "mean_motion_rev_day": 15.31705961
    },
    {
      "epoch": "2026-05-05T11:58:04.146240Z",
      "apogee_km": 471.6326019384978,
      "perigee_km": 469.82997980434084,
      "latitude_deg": -2.4287305256657255e-05,
      "longitude_deg": 128.3247319906552,
      "height_km": 471.53583739146944,
      "semi_major_axis_km": 6848.868290871419,
      "eccentricity": 0.0001316,
      "inclination_deg": 53.1575,
      "raan_deg": 171.2148,
      "arg_perigee_deg": 84.0265,
      "mean_anomaly_deg": 276.0886,
      "mean_motion_rev_day": 15.3170292
    },
    {
      "epoch": "2026-05-06T09:53:29.696928Z",
      "apogee_km": 471.3938759803141,
      "perigee_km": 469.943161995282,
      "latitude_deg": 5.0960428399213585e-05,
      "longitude_deg": 154.3158463585742,
      "height_km": 471.7367220570691,
      "semi_major_axis_km": 6848.805518987798,
      "eccentricity": 0.00010591,
      "inclination_deg": 53.1556,
      "raan_deg": 166.9627,
      "arg_perigee_deg": 103.5293,
      "mean_anomaly_deg": 256.5827,
      "mean_motion_rev_day": 15.31723978
    },
    {
      "epoch": "2026-05-07T09:22:54.988608Z",
      "apogee_km": 471.49482865698064,
      "perigee_km": 470.0017716615457,
      "latitude_deg": -5.807802865506691e-06,
      "longitude_deg": 156.4365037073973,
      "height_km": 471.6099459871955,
      "semi_major_axis_km": 6848.885300159263,
      "eccentricity": 0.000109,
      "inclination_deg": 53.1567,
      "raan_deg": 162.4035,
      "arg_perigee_deg": 87.1663,
      "mean_anomaly_deg": 272.9463,
      "mean_motion_rev_day": 15.31697214
    },
    {
      "epoch": "2026-05-08T10:26:17.335104Z",
      "apogee_km": 471.56990132257215,
      "perigee_km": 469.886450262361,
      "latitude_deg": -1.410892716713365e-05,
      "longitude_deg": 134.704661919383,
      "height_km": 471.72820481588514,
      "semi_major_axis_km": 6848.865175792466,
      "eccentricity": 0.0001229,
      "inclination_deg": 53.1576,
      "raan_deg": 157.5438,
      "arg_perigee_deg": 96.9298,
      "mean_anomaly_deg": 263.1843,
      "mean_motion_rev_day": 15.31703965
    },
    {
      "epoch": "2026-05-09T09:55:42.222432Z",
      "apogee_km": 471.53750867200506,
      "perigee_km": 469.91295855019234,
      "latitude_deg": 2.162139475971102e-05,
      "longitude_deg": 136.8293787918579,
      "height_km": 471.6959466668167,
      "semi_major_axis_km": 6848.862233611098,
      "eccentricity": 0.0001186,
      "inclination_deg": 53.1576,
      "raan_deg": 152.9869,
      "arg_perigee_deg": 95.099,
      "mean_anomaly_deg": 265.0147,
      "mean_motion_rev_day": 15.31704952
    }
  ]
}